H1 CPF 01  gfz 2022 12 03 01  8371 tandemx   
H2 1003001  6202 36605    2022 12 03 00 59 42 2022 12 08 00 00 42   120 1 1  0 0 0
H9
10 0 59919  75582.000000  0    4866502.678  -4860315.792    393899.243
10 0 59919  75702.000000  0    4660201.996  -4904833.924   1291530.725
10 0 59919  75822.000000  0    4372438.903  -4859277.928   2166421.055
10 0 59919  75942.000000  0    4009814.269  -4723062.915   3003160.908
10 0 59919  76062.000000  0    3580247.023  -4497330.937   3787016.970
10 0 59919  76182.000000  0    3092800.243  -4184949.432   4504197.239
10 0 59919  76302.000000  0    2557487.143  -3790474.131   5142096.500
10 0 59919  76422.000000  0    1985062.109  -3320078.701   5689517.517
10 0 59919  76542.000000  0    1386800.919  -2781452.445   6136865.403
10 0 59919  76662.000000  0     774275.573  -2183668.544   6476310.099
10 0 59919  76782.000000  0     159128.725  -1537027.128   6701917.106
10 0 59919  76902.000000  0    -447147.696   -852875.287   6809745.292
10 0 59919  77022.000000  0   -1033426.112   -143406.111   6797911.672
10 0 59919  77142.000000  0   -1589146.715    578558.628   6666622.000
10 0 59919  77262.000000  0   -2104507.101   1299799.680   6418167.307
10 0 59919  77382.000000  0   -2570635.400   2006941.417   6056886.420
10 0 59919  77502.000000  0   -2979744.081   2686699.538   5589095.068
10 0 59919  77622.000000  0   -3325262.642   3326132.101   5022982.013
10 0 59919  77742.000000  0   -3601947.137   3912888.716   4368471.713
10 0 59919  77862.000000  0   -3805963.398   4435454.003   3637055.379
10 0 59919  77982.000000  0   -3934942.078   4883379.796   2841591.835
10 0 59919  78102.000000  0   -3988004.165   5247500.408   1996080.514
10 0 59919  78222.000000  0   -3965755.159   5520124.624   1115411.591
10 0 59919  78342.000000  0   -3870249.666   5695200.943    215098.943
10 0 59919  78462.000000  0   -3704927.096   5768452.682   -689001.051
10 0 59919  78582.000000  0   -3474517.388   5737476.591  -1580979.467
10 0 59919  78702.000000  0   -3184920.416   5601802.161  -2445164.809
10 0 59919  78822.000000  0   -2843061.068   5362911.551  -3266404.697
10 0 59919  78942.000000  0   -2456727.760   5024220.528  -4030334.779
10 0 59919  79062.000000  0   -2034396.889   4591020.790  -4723629.761
10 0 59919  79182.000000  0   -1585047.699   4070386.920  -5334230.143
10 0 59919  79302.000000  0   -1117973.372   3471052.523  -5851544.085
10 0 59919  79422.000000  0    -642590.632   2803255.858  -6266622.585
10 0 59919  79542.000000  0    -168252.041   2078558.438  -6572302.974
10 0 59919  79662.000000  0     295933.976   1309642.861  -6763320.609
10 0 59919  79782.000000  0     741273.118    510092.144  -6836390.794
10 0 59919  79902.000000  0    1159644.384   -305846.244  -6790259.352
10 0 59919  80022.000000  0    1543644.255  -1123509.421  -6625720.700
10 0 59919  80142.000000  0    1886714.046  -1928075.414  -6345604.686
10 0 59919  80262.000000  0    2183250.392  -2704824.691  -5954733.777
10 0 59919  80382.000000  0    2428696.614  -3439404.763  -5459850.365
10 0 59919  80502.000000  0    2619614.426  -4118096.060  -4869511.759
10 0 59919  80622.000000  0    2753732.830  -4728069.511  -4193951.249
10 0 59919  80742.000000  0    2829973.854  -5257632.155  -3444911.688
10 0 59919  80862.000000  0    2848454.825  -5696459.665  -2635450.988
10 0 59919  80982.000000  0    2810466.502  -6035807.240  -1779719.340
10 0 59919  81102.000000  0    2718427.764  -6268694.107   -892713.394
10 0 59919  81222.000000  0    2575815.417  -6390056.290      9990.347
10 0 59919  81342.000000  0    2387071.086  -6396861.158    912515.397
10 0 59919  81462.000000  0    2157488.747  -6288183.176   1798971.986
10 0 59919  81582.000000  0    1893084.157  -6065236.790   2653747.312
10 0 59919  81702.000000  0    1600449.868  -5731364.431   3461788.837
10 0 59919  81822.000000  0    1286600.199  -5291982.373   4208875.284
10 0 59919  81942.000000  0     958809.940  -4754486.107   4881870.049
10 0 59919  82062.000000  0     624451.043  -4128118.437   5468953.961
10 0 59919  82182.000000  0     290830.076  -3423800.416   5959832.082
10 0 59919  82302.000000  0     -34967.875  -2653930.837   6345909.021
10 0 59919  82422.000000  0    -346226.722  -1832161.688   6620432.234
10 0 59919  82542.000000  0    -636735.005   -973153.170   6778604.081
10 0 59919  82662.000000  0    -900907.995    -92310.496   6817661.793
10 0 59919  82782.000000  0   -1133894.084    794493.319   6736923.055
10 0 59919  82902.000000  0   -1331663.440   1671203.238   6537796.806
10 0 59919  83022.000000  0   -1491077.574   2521872.122   6223760.169
10 0 59919  83142.000000  0   -1609939.475   3330950.998   5800301.547
10 0 59919  83262.000000  0   -1687023.019   4083574.937   5274829.729
10 0 59919  83382.000000  0   -1722081.021   4765840.260   4656551.201
10 0 59919  83502.000000  0   -1715832.611   5365068.654   3956314.179
10 0 59919  83622.000000  0   -1669928.713   5870051.243   3186421.680
10 0 59919  83742.000000  0   -1586898.209   6271267.309   2360416.478
10 0 59919  83862.000000  0   -1470074.370   6561073.400   1492840.870
10 0 59919  83982.000000  0   -1323502.029   6733856.946    598975.465
10 0 59919  84102.000000  0   -1151829.283   6786149.843   -305436.514
10 0 59919  84222.000000  0    -960186.529   6716701.331  -1204475.157
10 0 59919  84342.000000  0    -754054.499   6526503.915  -2082335.652
10 0 59919  84462.000000  0    -539126.750   6218771.037  -2923614.061
10 0 59919  84582.000000  0    -321170.190   5798872.097  -3713580.871
10 0 59919  84702.000000  0    -105886.157   5274227.595  -4438439.533
10 0 59919  84822.000000  0     101224.380   4654165.730  -5085565.187
10 0 59919  84942.000000  0     294988.561   3949745.056  -5643718.682
10 0 59919  85062.000000  0     470679.357   3173547.152  -6103233.479
10 0 59919  85182.000000  0     624120.221   2339444.177  -6456172.101
10 0 59919  85302.000000  0     751775.361   1462347.927  -6696451.298
10 0 59919  85422.000000  0     850824.381    557944.424  -6819936.696
10 0 59919  85542.000000  0     919219.693   -357582.724  -6824506.417
10 0 59919  85662.000000  0     955726.272  -1267836.417  -6710082.967
10 0 59919  85782.000000  0     959943.039  -2156491.792  -6478632.636
10 0 59919  85902.000000  0     932306.474  -3007580.381  -6134136.278
10 0 59919  86022.000000  0     874075.733  -3805773.215  -5682530.565
10 0 59919  86142.000000  0     787298.643  -4536656.367  -5131614.771
10 0 59919  86262.000000  0     674760.912  -5186992.580  -4490927.179
10 0 59919  86382.000000  0     539917.638  -5744967.326  -3771591.643
10 0 59920    102.000000  0     386808.567  -6200413.111  -2986133.382
10 0 59920    222.000000  0     219958.915  -6545006.161  -2148267.609
10 0 59920    342.000000  0      44267.828  -6772432.180  -1272663.070
10 0 59920    462.000000  0    -135113.501  -6878514.452   -374683.321
10 0 59920    582.000000  0    -312910.901  -6861300.121    529887.632
10 0 59920    702.000000  0    -483860.281  -6721103.160   1425129.361
10 0 59920    822.000000  0    -642841.375  -6460502.643   2295274.119
10 0 59920    942.000000  0    -785008.596  -6084294.484   3124994.404
10 0 59920   1062.000000  0    -905914.422  -5599396.866   3899681.717
10 0 59920   1182.000000  0   -1001623.746  -5014713.968   4605707.845
10 0 59920   1302.000000  0   -1068816.385  -4340963.188   5230666.245
10 0 59920   1422.000000  0   -1104874.071  -3590469.609   5763589.948
10 0 59920   1542.000000  0   -1107951.432  -2776930.141   6195141.842
10 0 59920   1662.000000  0   -1077027.958  -1915154.961   6517771.234
10 0 59920   1782.000000  0   -1011941.063  -1020794.553   6725839.029
10 0 59920   1902.000000  0    -913400.767   -110053.318   6815711.658
10 0 59920   2022.000000  0    -782985.046    800604.717   6785820.445
10 0 59920   2142.000000  0    -623114.424   1694753.142   6636687.665
10 0 59920   2262.000000  0    -437006.897   2556299.125   6370917.865
10 0 59920   2382.000000  0    -228614.272   3369772.963   5993155.102
10 0 59920   2502.000000  0      -2541.384   4120607.631   5510006.704
10 0 59920   2622.000000  0     236051.014   4795403.306   4929933.231
10 0 59920   2742.000000  0     481558.658   5382173.503   4263106.923
10 0 59920   2862.000000  0     728058.124   5870565.718   3521235.691
10 0 59920   2982.000000  0     969440.683   6252052.293   2717364.009
10 0 59920   3102.000000  0    1199556.020   6520095.056   1865641.725
10 0 59920   3222.000000  0    1412357.445   6670263.048    981068.665
10 0 59920   3342.000000  0    1602047.490   6700311.207     79223.748
10 0 59920   3462.000000  0    1763219.864   6610214.029   -824017.477
10 0 59920   3582.000000  0    1890993.440   6402155.060  -1712770.337
10 0 59920   3702.000000  0    1981135.675   6080473.075  -2571427.641
10 0 59920   3822.000000  0    2030172.293   5651565.841  -3384939.941
10 0 59920   3942.000000  0    2035480.474   5123753.605  -4139083.291
10 0 59920   4062.000000  0    1995363.203   4507105.738  -4820707.780
10 0 59920   4182.000000  0    1909103.051   3813237.195  -5417961.844
10 0 59920   4302.000000  0    1776995.528   3055080.863  -5920490.169
10 0 59920   4422.000000  0    1600360.671   2246639.684  -6319603.435
10 0 59920   4542.000000  0    1381533.335   1402724.786  -6608416.378
10 0 59920   4662.000000  0    1123833.774    538685.534  -6781955.826
10 0 59920   4782.000000  0     831517.324   -329866.201  -6837237.894
10 0 59920   4902.000000  0     509704.420  -1187332.869  -6773312.850
10 0 59920   5022.000000  0     164292.754  -2018403.848  -6591278.054
10 0 59920   5142.000000  0    -198147.140  -2808320.658  -6294262.057
10 0 59920   5262.000000  0    -570493.358  -3543135.309  -5887378.259
10 0 59920   5382.000000  0    -945207.832  -4209954.620  -5377645.077
10 0 59920   5502.000000  0   -1314483.661  -4797167.860  -4773876.724
10 0 59920   5622.000000  0   -1670403.231  -5294654.892  -4086542.475
99
